[{"OBJECT_NAME":"STARLINK-3199","OBJECT_ID":"2021-115AN","EPOCH":"2026-03-09T12:04:27.356160","MEAN_MOTION":15.08826102,"ECCENTRICITY":0.00012596,"INCLINATION":53.2171,"RA_OF_ASC_NODE":139.9583,"ARG_OF_PERICENTER":86.1555,"MEAN_ANOMALY":273.9581,"EPHEMERIS_TYPE":0,"CLASSIFICATION_TYPE":"U","NORAD_CAT_ID":49760,"ELEMENT_SET_NO":999,"REV_AT_EPOCH":23565,"BSTAR":-9.5197863e-5,"MEAN_MOTION_DOT":-1.802e-5,"MEAN_MOTION_DDOT":0},{"OBJECT_NAME":"CZ-4C R\/B","OBJECT_ID":"2024-186B","EPOCH":"2026-03-09T22:51:12.491424","MEAN_MOTION":15.07425891,"ECCENTRICITY":0.00475116,"INCLINATION":97.8722,"RA_OF_ASC_NODE":96.5934,"ARG_OF_PERICENTER":122.4234,"MEAN_ANOMALY":238.1602,"EPHEMERIS_TYPE":0,"CLASSIFICATION_TYPE":"U","NORAD_CAT_ID":61572,"ELEMENT_SET_NO":999,"REV_AT_EPOCH":7672,"BSTAR":0.00027865777,"MEAN_MOTION_DOT":4.262e-5,"MEAN_MOTION_DDOT":0}]
